[
    {
        "Altitude(m)": 610399.542934155,
        "Argument of Periapsis(deg)": 0.0,
        "Eccentricity": 0.0,
        "Inclination(deg)": 60.0,
        "Latitude(deg)": 52.11137383198572,
        "Longitude(deg)": 12.584157757092981,
        "Mean Anomaly(deg)": 65.45450000000001,
        "RAAN(deg)": 65.0,
        "Satellite Name": "Test1 290",
        "Satellite Number": 290,
        "Semi-Major Axis(m)": 6980739.136638005,
        "Time(s)": 0
    },
    {
        "Altitude(m)": 610481.6945441432,
        "Argument of Periapsis(deg)": 0.00010418945913296404,
        "Eccentricity": 0.0,
        "Inclination(deg)": 60.0,
        "Latitude(deg)": 52.47097765916969,
        "Longitude(deg)": 13.366292745873052,
        "Mean Anomaly(deg)": 66.07460614546183,
        "RAAN(deg)": 64.99957995086025,
        "Satellite Name": "Test1 290",
        "Satellite Number": 290,
        "Semi-Major Axis(m)": 6980739.136638005,
        "Time(s)": 10
    },
    {
        "Altitude(m)": 610562.3849710257,
        "Argument of Periapsis(deg)": 0.0002083789182659281,
        "Eccentricity": 0.0,
        "Inclination(deg)": 60.0,
        "Latitude(deg)": 52.82473410215532,
        "Longitude(deg)": 14.161840802621178,
        "Mean Anomaly(deg)": 66.69471229092363,
        "RAAN(deg)": 64.99915990172052,
        "Satellite Name": "Test1 290",
        "Satellite Number": 290,
        "Semi-Major Axis(m)": 6980739.136638005,
        "Time(s)": 20
    },
    {
        "Altitude(m)": 610641.5667486334,
        "Argument of Periapsis(deg)": 0.00031256837739889213,
        "Eccentricity": 0.0,
        "Inclination(deg)": 60.0,
        "Latitude(deg)": 53.17247363353826,
        "Longitude(deg)": 14.970966442688178,
        "Mean Anomaly(deg)": 67.31481843638548,
        "RAAN(deg)": 64.99873985258077,
        "Satellite Name": "Test1 290",
        "Satellite Number": 290,
        "Semi-Major Axis(m)": 6980739.136638005,
        "Time(s)": 30
    },
    {
        "Altitude(m)": 610719.1933672581,
        "Argument of Periapsis(deg)": 0.0004167578365318562,
        "Eccentricity": 0.0,
        "Inclination(deg)": 60.0,
        "Latitude(deg)": 53.514023249934326,
        "Longitude(deg)": 15.793822569076744,
        "Mean Anomaly(deg)": 67.93492458184731,
        "RAAN(deg)": 64.99831980344103,
        "Satellite Name": "Test1 290",
        "Satellite Number": 290,
        "Semi-Major Axis(m)": 6980739.136638005,
        "Time(s)": 40
    },
    {
        "Altitude(m)": 610795.2192959589,
        "Argument of Periapsis(deg)": 0.0005209472956648203,
        "Eccentricity": 0.0,
        "Inclination(deg)": 60.0,
        "Latitude(deg)": 53.849206593938355,
        "Longitude(deg)": 16.63054805824263,
        "Mean Anomaly(deg)": 68.55503072730916,
        "RAAN(deg)": 64.9978997543013,
        "Satellite Name": "Test1 290",
        "Satellite Number": 290,
        "Semi-Major Axis(m)": 6980739.136638005,
        "Time(s)": 50
    },
    {
        "Altitude(m)": 610869.6000044156,
        "Argument of Periapsis(deg)": 0.0006251367547977843,
        "Eccentricity": 0.0,
        "Inclination(deg)": 60.0,
        "Latitude(deg)": 54.17784410041111,
        "Longitude(deg)": 17.481266793122906,
        "Mean Anomaly(deg)": 69.17513687277096,
        "RAAN(deg)": 64.99747970516155,
        "Satellite Name": "Test1 290",
        "Satellite Number": 290,
        "Semi-Major Axis(m)": 6980739.136638005,
        "Time(s)": 60
    },
    {
        "Altitude(m)": 610942.291984247,
        "Argument of Periapsis(deg)": 0.0007293262139307483,
        "Eccentricity": 0.0,
        "Inclination(deg)": 60.0,
        "Latitude(deg)": 54.49975316875485,
        "Longitude(deg)": 18.346086634822807,
        "Mean Anomaly(deg)": 69.79524301823278,
        "RAAN(deg)": 64.99705965602182,
        "Satellite Name": "Test1 290",
        "Satellite Number": 290,
        "Semi-Major Axis(m)": 6980739.136638005,
        "Time(s)": 70
    },
    {
        "Altitude(m)": 611013.2527698317,
        "Argument of Periapsis(deg)": 0.0008335156730637124,
        "Eccentricity": 0.0,
        "Inclination(deg)": 60.0,
        "Latitude(deg)": 54.81474836280015,
        "Longitude(deg)": 19.225096825702717,
        "Mean Anomaly(deg)": 70.41534916369463,
        "RAAN(deg)": 64.99663960688207,
        "Satellite Name": "Test1 290",
        "Satellite Number": 290,
        "Semi-Major Axis(m)": 6980739.136638005,
        "Time(s)": 80
    },
    {
        "Altitude(m)": 611082.4409586048,
        "Argument of Periapsis(deg)": 0.0009377051321966765,
        "Eccentricity": 0.0,
        "Inclination(deg)": 60.0,
        "Latitude(deg)": 55.12264163986779,
        "Longitude(deg)": 20.11836685665912,
        "Mean Anomaly(deg)": 71.03545530915646,
        "RAAN(deg)": 64.99621955774234,
        "Satellite Name": "Test1 290",
        "Satellite Number": 290,
        "Semi-Major Axis(m)": 6980739.136638005,
        "Time(s)": 90
    },
    {
        "Altitude(m)": 611149.816230852,
        "Argument of Periapsis(deg)": 0.0010418945913296407,
        "Eccentricity": 0.0,
        "Inclination(deg)": 60.0,
        "Latitude(deg)": 55.42324261046362,
        "Longitude(deg)": 21.02594529431422,
        "Mean Anomaly(deg)": 71.6555614546183,
        "RAAN(deg)": 64.99579950860257,
        "Satellite Name": "Test1 290",
        "Satellite Number": 290,
        "Semi-Major Axis(m)": 6980739.136638005,
        "Time(s)": 100
    },
    {
        "Altitude(m)": 611215.3393689451,
        "Argument of Periapsis(deg)": 0.0011460840504626045,
        "Eccentricity": 0.0,
        "Inclination(deg)": 60.0,
        "Latitude(deg)": 55.71635882993258,
        "Longitude(deg)": 21.947857065465925,
        "Mean Anomaly(deg)": 72.27566760008011,
        "RAAN(deg)": 64.99537945946282,
        "Satellite Name": "Test1 290",
        "Satellite Number": 290,
        "Semi-Major Axis(m)": 6980739.136638005,
        "Time(s)": 110
    },
    {
        "Altitude(m)": 611278.9722760417,
        "Argument of Periapsis(deg)": 0.0012502735095955685,
        "Eccentricity": 0.0,
        "Inclination(deg)": 60.0,
        "Latitude(deg)": 56.00179612323508,
        "Longitude(deg)": 22.884102236493604,
        "Mean Anomaly(deg)": 72.89577374554194,
        "RAAN(deg)": 64.99495941032309,
        "Satellite Name": "Test1 290",
        "Satellite Number": 290,
        "Semi-Major Axis(m)": 6980739.136638005,
        "Time(s)": 120
    },
    {
        "Altitude(m)": 611340.677994238,
        "Argument of Periapsis(deg)": 0.0013544629687285324,
        "Eccentricity": 0.0,
        "Inclination(deg)": 60.0,
        "Latitude(deg)": 56.279358943791266,
        "Longitude(deg)": 23.834654788566837,
        "Mean Anomaly(deg)": 73.51587989100379,
        "RAAN(deg)": 64.99453936118334,
        "Satellite Name": "Test1 290",
        "Satellite Number": 290,
        "Semi-Major Axis(m)": 6980739.136638005,
        "Time(s)": 130
    },
    {
        "Altitude(m)": 611400.4207221881,
        "Argument of Periapsis(deg)": 0.0014586524278614966,
        "Eccentricity": 0.0,
        "Inclination(deg)": 60.0,
        "Latitude(deg)": 56.548850767084076,
        "Longitude(deg)": 24.79945989130664,
        "Mean Anomaly(deg)": 74.13598603646562,
        "RAAN(deg)": 64.99411931204361,
        "Satellite Name": "Test1 290",
        "Satellite Number": 290,
        "Semi-Major Axis(m)": 6980739.136638005,
        "Time(s)": 140
    },
    {
        "Altitude(m)": 611458.1658321025,
        "Argument of Periapsis(deg)": 0.0015628418869944607,
        "Eccentricity": 0.0,
        "Inclination(deg)": 60.0,
        "Latitude(deg)": 56.81007451942243,
        "Longitude(deg)": 25.778432717964186,
        "Mean Anomaly(deg)": 74.75609218192744,
        "RAAN(deg)": 64.99369926290386,
        "Satellite Name": "Test1 290",
        "Satellite Number": 290,
        "Semi-Major Axis(m)": 6980739.136638005,
        "Time(s)": 150
    },
    {
        "Altitude(m)": 611513.8798862363,
        "Argument of Periapsis(deg)": 0.0016670313461274247,
        "Eccentricity": 0.0,
        "Inclination(deg)": 60.0,
        "Latitude(deg)": 57.06283304191219,
        "Longitude(deg)": 26.77145730829822,
        "Mean Anomaly(deg)": 75.37619832738926,
        "RAAN(deg)": 64.99327921376413,
        "Satellite Name": "Test1 290",
        "Satellite Number": 290,
        "Semi-Major Axis(m)": 6980739.136638005,
        "Time(s)": 160
    },
    {
        "Altitude(m)": 611567.5306527646,
        "Argument of Periapsis(deg)": 0.0017712208052603888,
        "Eccentricity": 0.0,
        "Inclination(deg)": 60.0,
        "Latitude(deg)": 57.30692958929389,
        "Longitude(deg)": 27.778383986971114,
        "Mean Anomaly(deg)": 75.99630447285111,
        "RAAN(deg)": 64.99285916462438,
        "Satellite Name": "Test1 290",
        "Satellite Number": 290,
        "Semi-Major Axis(m)": 6980739.136638005,
        "Time(s)": 170
    },
    {
        "Altitude(m)": 611619.0871210991,
        "Argument of Periapsis(deg)": 0.001875410264393353,
        "Eccentricity": 0.0,
        "Inclination(deg)": 60.0,
        "Latitude(deg)": 57.54216836287918,
        "Longitude(deg)": 28.799028385390717,
        "Mean Anomaly(deg)": 76.61641061831294,
        "RAAN(deg)": 64.99243911548463,
        "Satellite Name": "Test1 290",
        "Satellite Number": 290,
        "Semi-Major Axis(m)": 6980739.136638005,
        "Time(s)": 180
    },
    {
        "Altitude(m)": 611668.5195165725,
        "Argument of Periapsis(deg)": 0.0019795997235263173,
        "Eccentricity": 0.0,
        "Inclination(deg)": 60.0,
        "Latitude(deg)": 57.768355076333826,
        "Longitude(deg)": 29.833170577571636,
        "Mean Anomaly(deg)": 77.23651676377479,
        "RAAN(deg)": 64.9920190663449,
        "Satellite Name": "Test1 290",
        "Satellite Number": 290,
        "Semi-Major Axis(m)": 6980739.136638005,
        "Time(s)": 190
    }
]